{
  "type": "FeatureCollection",
  "features": [
    {
      "type": "Feature",
      "properties": {
        "norad_id": 33986,
        "name": "COSMOS 2251 DEB",
        "group": "cosmos-2251-debris",
        "lat": -57.53605113961141,
        "lon": 165.99067973146097,
        "alt_km": 780.2435389274688,
        "timestamp": "2025-12-03T19:33:07.370576+00:00",
        "meta_object_name": "COSMOS 2251 DEB",
        "meta_object_id": "1993-036FV",
        "meta_epoch": "2025-12-03T05:11:50.753760",
        "meta_mean_motion": 14.43121163,
        "meta_eccentricity": 0.0039941,
        "meta_inclination": 74.0363,
        "meta_ra_of_asc_node": 320.3611,
        "meta_arg_of_pericenter": 35.4422,
        "meta_mean_anomaly": 339.9984,
        "meta_ephemeris_type": 0,
        "meta_classification_type": "U",
        "meta_norad_cat_id": 33986,
        "meta_element_set_no": 999,
        "meta_rev_at_epoch": 87891,
        "meta_bstar": 0.0010907,
        "meta_mean_motion_dot": 3.672e-05,
        "meta_mean_motion_ddot": 0,
        "tle_line1": "1 33986U 93036FV  25337.21655965  .00003672  00000+0  10907-2 0  9995",
        "tle_line2": "2 33986  74.0363 320.3611 0039941  35.4422 339.9984 14.43121163878910"
      },
      "geometry": {
        "type": "Point",
        "coordinates": [
          165.99067973146097,
          -57.53605113961141
        ]
      }
    },
    {
      "type": "Feature",
      "properties": {
        "norad_id": 33990,
        "name": "COSMOS 2251 DEB",
        "group": "cosmos-2251-debris",
        "lat": 46.286678473780285,
        "lon": -42.1276337663711,
        "alt_km": 1037.7866038388802,
        "timestamp": "2025-12-03T19:33:07.370587+00:00",
        "meta_object_name": "COSMOS 2251 DEB",
        "meta_object_id": "1993-036FZ",
        "meta_epoch": "2025-12-03T09:29:00.953088",
        "meta_mean_motion": 13.49944652,
        "meta_eccentricity": 0.0407596,
        "meta_inclination": 73.9281,
        "meta_ra_of_asc_node": 300.9964,
        "meta_arg_of_pericenter": 322.9854,
        "meta_mean_anomaly": 203.1867,
        "meta_ephemeris_type": 0,
        "meta_classification_type": "U",
        "meta_norad_cat_id": 33990,
        "meta_element_set_no": 999,
        "meta_rev_at_epoch": 82603,
        "meta_bstar": 0.0022364,
        "meta_mean_motion_dot": 2.358e-05,
        "meta_mean_motion_ddot": 0,
        "tle_line1": "1 33990U 93036FZ  25337.39514992  .00002358  00000+0  22364-2 0  9993",
        "tle_line2": "2 33990  73.9281 300.9964 0407596 322.9854 203.1867 13.49944652826034"
      },
      "geometry": {
        "type": "Point",
        "coordinates": [
          -42.1276337663711,
          46.286678473780285
        ]
      }
    },
    {
      "type": "Feature",
      "properties": {
        "norad_id": 33992,
        "name": "COSMOS 2251 DEB",
        "group": "cosmos-2251-debris",
        "lat": 70.34400194701836,
        "lon": 48.27743828543015,
        "alt_km": 637.258892570766,
        "timestamp": "2025-12-03T19:33:07.370597+00:00",
        "meta_object_name": "COSMOS 2251 DEB",
        "meta_object_id": "1993-036GB",
        "meta_epoch": "2025-12-03T11:44:13.869888",
        "meta_mean_motion": 14.66095302,
        "meta_eccentricity": 0.0051757,
        "meta_inclination": 74.0241,
        "meta_ra_of_asc_node": 355.5788,
        "meta_arg_of_pericenter": 116.3862,
        "meta_mean_anomaly": 44.5114,
        "meta_ephemeris_type": 0,
        "meta_classification_type": "U",
        "meta_norad_cat_id": 33992,
        "meta_element_set_no": 999,
        "meta_rev_at_epoch": 88989,
        "meta_bstar": 0.00096902,
        "meta_mean_motion_dot": 5.401e-05,
        "meta_mean_motion_ddot": 0,
        "tle_line1": "1 33992U 93036GB  25337.48904942  .00005401  00000+0  96902-3 0  9995",
        "tle_line2": "2 33992  74.0241 355.5788 0051757 116.3862  44.5114 14.66095302889896"
      },
      "geometry": {
        "type": "Point",
        "coordinates": [
          48.27743828543015,
          70.34400194701836
        ]
      }
    },
    {
      "type": "Feature",
      "properties": {
        "norad_id": 33994,
        "name": "COSMOS 2251 DEB",
        "group": "cosmos-2251-debris",
        "lat": 66.48958092352353,
        "lon": -111.94817336516888,
        "alt_km": 747.5335459191238,
        "timestamp": "2025-12-03T19:33:07.370607+00:00",
        "meta_object_name": "COSMOS 2251 DEB",
        "meta_object_id": "1993-036GD",
        "meta_epoch": "2025-12-03T08:07:35.178240",
        "meta_mean_motion": 14.41205422,
        "meta_eccentricity": 0.0023304,
        "meta_inclination": 74.0425,
        "meta_ra_of_asc_node": 207.806,
        "meta_arg_of_pericenter": 343.9242,
        "meta_mean_anomaly": 139.3541,
        "meta_ephemeris_type": 0,
        "meta_classification_type": "U",
        "meta_norad_cat_id": 33994,
        "meta_element_set_no": 999,
        "meta_rev_at_epoch": 88284,
        "meta_bstar": 0.0001391,
        "meta_mean_motion_dot": 4.24e-06,
        "meta_mean_motion_ddot": 0,
        "tle_line1": "1 33994U 93036GD  25337.33860160  .00000424  00000+0  13910-3 0  9992",
        "tle_line2": "2 33994  74.0425 207.8060 0023304 343.9242 139.3541 14.41205422882845"
      },
      "geometry": {
        "type": "Point",
        "coordinates": [
          -111.94817336516888,
          66.48958092352353
        ]
      }
    },
    {
      "type": "Feature",
      "properties": {
        "norad_id": 33995,
        "name": "COSMOS 2251 DEB",
        "group": "cosmos-2251-debris",
        "lat": -3.9913972308617485,
        "lon": 134.5354278174968,
        "alt_km": 819.1512467578477,
        "timestamp": "2025-12-03T19:33:07.370617+00:00",
        "meta_object_name": "COSMOS 2251 DEB",
        "meta_object_id": "1993-036GE",
        "meta_epoch": "2025-12-03T04:30:35.521632",
        "meta_mean_motion": 14.34683036,
        "meta_eccentricity": 0.00609,
        "meta_inclination": 74.0597,
        "meta_ra_of_asc_node": 136.8242,
        "meta_arg_of_pericenter": 153.8096,
        "meta_mean_anomaly": 206.6159,
        "meta_ephemeris_type": 0,
        "meta_classification_type": "U",
        "meta_norad_cat_id": 33995,
        "meta_element_set_no": 999,
        "meta_rev_at_epoch": 87382,
        "meta_bstar": 0.0014459,
        "meta_mean_motion_dot": 4.155e-05,
        "meta_mean_motion_ddot": 0,
        "tle_line1": "1 33995U 93036GE  25337.18791113  .00004155  00000+0  14459-2 0  9990",
        "tle_line2": "2 33995  74.0597 136.8242 0060900 153.8096 206.6159 14.34683036873821"
      },
      "geometry": {
        "type": "Point",
        "coordinates": [
          134.5354278174968,
          -3.9913972308617485
        ]
      }
    },
    {
      "type": "Feature",
      "properties": {
        "norad_id": 33999,
        "name": "COSMOS 2251 DEB",
        "group": "cosmos-2251-debris",
        "lat": 35.57923905624023,
        "lon": -99.51973544587898,
        "alt_km": 627.3496935074381,
        "timestamp": "2025-12-03T19:33:07.370626+00:00",
        "meta_object_name": "COSMOS 2251 DEB",
        "meta_object_id": "1993-036GJ",
        "meta_epoch": "2025-12-03T04:48:45.359136",
        "meta_mean_motion": 14.83001777,
        "meta_eccentricity": 0.0044678,
        "meta_inclination": 73.9203,
        "meta_ra_of_asc_node": 249.7953,
        "meta_arg_of_pericenter": 148.1917,
        "meta_mean_anomaly": 212.1973,
        "meta_ephemeris_type": 0,
        "meta_classification_type": "U",
        "meta_norad_cat_id": 33999,
        "meta_element_set_no": 999,
        "meta_rev_at_epoch": 89109,
        "meta_bstar": 0.0018736,
        "meta_mean_motion_dot": 0.00015498,
        "meta_mean_motion_ddot": 0,
        "tle_line1": "1 33999U 93036GJ  25337.20052499  .00015498  00000+0  18736-2 0  9998",
        "tle_line2": "2 33999  73.9203 249.7953 0044678 148.1917 212.1973 14.83001777891098"
      },
      "geometry": {
        "type": "Point",
        "coordinates": [
          -99.51973544587898,
          35.57923905624023
        ]
      }
    },
    {
      "type": "Feature",
      "properties": {
        "norad_id": 34001,
        "name": "COSMOS 2251 DEB",
        "group": "cosmos-2251-debris",
        "lat": 68.59147659066548,
        "lon": -15.115062721213587,
        "alt_km": 753.0034493930889,
        "timestamp": "2025-12-03T19:33:07.370636+00:00",
        "meta_object_name": "COSMOS 2251 DEB",
        "meta_object_id": "1993-036GL",
        "meta_epoch": "2025-12-03T08:12:20.602368",
        "meta_mean_motion": 14.37078066,
        "meta_eccentricity": 0.0019528,
        "meta_inclination": 74.0383,
        "meta_ra_of_asc_node": 298.8679,
        "meta_arg_of_pericenter": 22.1665,
        "meta_mean_anomaly": 128.3824,
        "meta_ephemeris_type": 0,
        "meta_classification_type": "U",
        "meta_norad_cat_id": 34001,
        "meta_element_set_no": 999,
        "meta_rev_at_epoch": 88011,
        "meta_bstar": 0.00031778,
        "meta_mean_motion_dot": 9.19e-06,
        "meta_mean_motion_ddot": 0,
        "tle_line1": "1 34001U 93036GL  25337.34190512  .00000919  00000+0  31778-3 0  9991",
        "tle_line2": "2 34001  74.0383 298.8679 0019528  22.1665 128.3824 14.37078066880119"
      },
      "geometry": {
        "type": "Point",
        "coordinates": [
          -15.115062721213587,
          68.59147659066548
        ]
      }
    }
  ]
}